{
  "type": "FeatureCollection",
  "features": [
    {
      "type": "Feature",
      "properties": {
        "norad_id": 35616,
        "name": "IRIDIUM 33 DEB",
        "group": "iridium-33-debris",
        "lat": -17.376788557664067,
        "lon": -16.383830203600855,
        "alt_km": 635.6435793559222,
        "timestamp": "2025-12-14T22:38:41.142702+00:00",
        "meta_object_name": "IRIDIUM 33 DEB",
        "meta_object_id": "1997-051QN",
        "meta_epoch": "2025-12-13T17:33:06.169824",
        "meta_mean_motion": 14.81853952,
        "meta_eccentricity": 0.00103784,
        "meta_inclination": 86.3548,
        "meta_ra_of_asc_node": 345.3124,
        "meta_arg_of_pericenter": 159.4251,
        "meta_mean_anomaly": 200.7391,
        "meta_ephemeris_type": 0,
        "meta_classification_type": "U",
        "meta_norad_cat_id": 35616,
        "meta_element_set_no": 999,
        "meta_rev_at_epoch": 87589,
        "meta_bstar": 0.0018690544,
        "meta_mean_motion_dot": 0.00014827,
        "meta_mean_motion_ddot": 0,
        "tle_line1": "1 35616U 97051QN  25347.73132141  .00014827  00000+0  18691-2 0  9994",
        "tle_line2": "2 35616  86.3548 345.3124 0010378 159.4251 200.7391 14.81853952875890"
      },
      "geometry": {
        "type": "Point",
        "coordinates": [
          -16.383830203600855,
          -17.376788557664067
        ]
      }
    },
    {
      "type": "Feature",
      "properties": {
        "norad_id": 35618,
        "name": "IRIDIUM 33 DEB",
        "group": "iridium-33-debris",
        "lat": -54.48655865672241,
        "lon": 177.6843675571879,
        "alt_km": 741.4216554080549,
        "timestamp": "2025-12-14T22:38:41.142712+00:00",
        "meta_object_name": "IRIDIUM 33 DEB",
        "meta_object_id": "1997-051QQ",
        "meta_epoch": "2025-12-05T07:42:53.148672",
        "meta_mean_motion": 14.52258119,
        "meta_eccentricity": 0.00302089,
        "meta_inclination": 86.3407,
        "meta_ra_of_asc_node": 356.7447,
        "meta_arg_of_pericenter": 46.3254,
        "meta_mean_anomaly": 314.0448,
        "meta_ephemeris_type": 0,
        "meta_classification_type": "U",
        "meta_norad_cat_id": 35618,
        "meta_element_set_no": 999,
        "meta_rev_at_epoch": 65286,
        "meta_bstar": 0.00091388234,
        "meta_mean_motion_dot": 3.753e-05,
        "meta_mean_motion_ddot": 0,
        "tle_line1": "1 35618U 97051QQ  25339.32144848  .00003753  00000+0  91388-3 0  9990",
        "tle_line2": "2 35618  86.3407 356.7447 0030208  46.3254 314.0448 14.52258119652865"
      },
      "geometry": {
        "type": "Point",
        "coordinates": [
          177.6843675571879,
          -54.48655865672241
        ]
      }
    },
    {
      "type": "Feature",
      "properties": {
        "norad_id": 35620,
        "name": "IRIDIUM 33 DEB",
        "group": "iridium-33-debris",
        "lat": 75.72614325096191,
        "lon": 22.146774739542742,
        "alt_km": 842.1424596923125,
        "timestamp": "2025-12-14T22:38:41.142722+00:00",
        "meta_object_name": "IRIDIUM 33 DEB",
        "meta_object_id": "1997-051QS",
        "meta_epoch": "2025-12-13T21:06:15.438240",
        "meta_mean_motion": 14.38113867,
        "meta_eccentricity": 0.01404541,
        "meta_inclination": 86.3879,
        "meta_ra_of_asc_node": 216.972,
        "meta_arg_of_pericenter": 255.2324,
        "meta_mean_anomaly": 103.3276,
        "meta_ephemeris_type": 0,
        "meta_classification_type": "U",
        "meta_norad_cat_id": 35620,
        "meta_element_set_no": 999,
        "meta_rev_at_epoch": 59982,
        "meta_bstar": 0.005286993,
        "meta_mean_motion_dot": 0.00018015,
        "meta_mean_motion_ddot": 0,
        "tle_line1": "1 35620U 97051QS  25347.87934535  .00018015  00000+0  52870-2 0  9991",
        "tle_line2": "2 35620  86.3879 216.9720 0140454 255.2324 103.3276 14.38113867599824"
      },
      "geometry": {
        "type": "Point",
        "coordinates": [
          22.146774739542742,
          75.72614325096191
        ]
      }
    },
    {
      "type": "Feature",
      "properties": {
        "norad_id": 35622,
        "name": "IRIDIUM 33 DEB",
        "group": "iridium-33-debris",
        "lat": -0.6159318844843052,
        "lon": -97.52299747872648,
        "alt_km": 551.0619181741786,
        "timestamp": "2025-12-14T22:38:41.142732+00:00",
        "meta_object_name": "IRIDIUM 33 DEB",
        "meta_object_id": "1997-051QU",
        "meta_epoch": "2025-12-13T12:18:27.452736",
        "meta_mean_motion": 15.04855982,
        "meta_eccentricity": 0.00058138,
        "meta_inclination": 86.204,
        "meta_ra_of_asc_node": 263.2227,
        "meta_arg_of_pericenter": 326.3099,
        "meta_mean_anomaly": 206.7001,
        "meta_ephemeris_type": 0,
        "meta_classification_type": "U",
        "meta_norad_cat_id": 35622,
        "meta_element_set_no": 999,
        "meta_rev_at_epoch": 87371,
        "meta_bstar": 0.007661382,
        "meta_mean_motion_dot": 0.00109841,
        "meta_mean_motion_ddot": 0,
        "tle_line1": "1 35622U 97051QU  25347.51281774  .00109841  00000+0  76614-2 0  9994",
        "tle_line2": "2 35622  86.2040 263.2227 0005813 326.3099 206.7001 15.04855982873712"
      },
      "geometry": {
        "type": "Point",
        "coordinates": [
          -97.52299747872648,
          -0.6159318844843052
        ]
      }
    },
    {
      "type": "Feature",
      "properties": {
        "norad_id": 35628,
        "name": "IRIDIUM 33 DEB",
        "group": "iridium-33-debris",
        "lat": -72.47821215173136,
        "lon": -160.2679156661459,
        "alt_km": 675.0691036695243,
        "timestamp": "2025-12-14T22:38:41.142742+00:00",
        "meta_object_name": "IRIDIUM 33 DEB",
        "meta_object_id": "1997-051RA",
        "meta_epoch": "2025-12-13T19:18:48.561408",
        "meta_mean_motion": 14.67604958,
        "meta_eccentricity": 0.00102895,
        "meta_inclination": 86.3579,
        "meta_ra_of_asc_node": 8.6006,
        "meta_arg_of_pericenter": 338.9594,
        "meta_mean_anomaly": 21.1195,
        "meta_ephemeris_type": 0,
        "meta_classification_type": "U",
        "meta_norad_cat_id": 35628,
        "meta_element_set_no": 999,
        "meta_rev_at_epoch": 86462,
        "meta_bstar": 0.0015459634,
        "meta_mean_motion_dot": 8.811e-05,
        "meta_mean_motion_ddot": 0,
        "tle_line1": "1 35628U 97051RA  25347.80472872  .00008811  00000+0  15460-2 0  9990",
        "tle_line2": "2 35628  86.3579   8.6006 0010289 338.9594  21.1195 14.67604958864620"
      },
      "geometry": {
        "type": "Point",
        "coordinates": [
          -160.2679156661459,
          -72.47821215173136
        ]
      }
    },
    {
      "type": "Feature",
      "properties": {
        "norad_id": 35631,
        "name": "IRIDIUM 33 DEB",
        "group": "iridium-33-debris",
        "lat": -11.995747878408855,
        "lon": 19.253141326572695,
        "alt_km": 746.2828008263423,
        "timestamp": "2025-12-14T22:38:41.142752+00:00",
        "meta_object_name": "IRIDIUM 33 DEB",
        "meta_object_id": "1997-051RD",
        "meta_epoch": "2025-12-13T20:57:48.149280",
        "meta_mean_motion": 14.47315231,
        "meta_eccentricity": 0.00191087,
        "meta_inclination": 86.3671,
        "meta_ra_of_asc_node": 20.4872,
        "meta_arg_of_pericenter": 114.6031,
        "meta_mean_anomaly": 61.8796,
        "meta_ephemeris_type": 0,
        "meta_classification_type": "U",
        "meta_norad_cat_id": 35631,
        "meta_element_set_no": 999,
        "meta_rev_at_epoch": 87213,
        "meta_bstar": 0.00047277124,
        "meta_mean_motion_dot": 1.754e-05,
        "meta_mean_motion_ddot": 0,
        "tle_line1": "1 35631U 97051RD  25347.87347395  .00001754  00000+0  47277-3 0  9993",
        "tle_line2": "2 35631  86.3671  20.4872 0019108 114.6031  61.8796 14.47315231872138"
      },
      "geometry": {
        "type": "Point",
        "coordinates": [
          19.253141326572695,
          -11.995747878408855
        ]
      }
    },
    {
      "type": "Feature",
      "properties": {
        "norad_id": 35680,
        "name": "IRIDIUM 33 DEB",
        "group": "iridium-33-debris",
        "lat": 69.87807419667823,
        "lon": -170.17558588417324,
        "alt_km": 918.115575189252,
        "timestamp": "2025-12-14T22:38:41.142762+00:00",
        "meta_object_name": "IRIDIUM 33 DEB",
        "meta_object_id": "1997-051RJ",
        "meta_epoch": "2025-12-14T08:38:54.081024",
        "meta_mean_motion": 14.20954301,
        "meta_eccentricity": 0.01504449,
        "meta_inclination": 86.1029,
        "meta_ra_of_asc_node": 20.8049,
        "meta_arg_of_pericenter": 273.3107,
        "meta_mean_anomaly": 95.5624,
        "meta_ephemeris_type": 0,
        "meta_classification_type": "U",
        "meta_norad_cat_id": 35680,
        "meta_element_set_no": 999,
        "meta_rev_at_epoch": 60724,
        "meta_bstar": 0.0038932879,
        "meta_mean_motion_dot": 9.473e-05,
        "meta_mean_motion_ddot": 0,
        "tle_line1": "1 35680U 97051RJ  25348.36034816  .00009473  00000+0  38933-2 0  9997",
        "tle_line2": "2 35680  86.1029  20.8049 0150444 273.3107  95.5624 14.20954301607243"
      },
      "geometry": {
        "type": "Point",
        "coordinates": [
          -170.17558588417324,
          69.87807419667823
        ]
      }
    }
  ]
}